STARLINK-30878          
1 58359U 23177J   26011.48617429  .00002056  00000+0  16720-3 0  9992
2 58359  43.0028 302.1796 0001170 281.1258  78.9453 15.02537602119618
STARLINK-30897          
1 58360U 23177K   26011.53390238 -.00001693  00000+0 -11029-3 0  9991
2 58360  43.0014 302.5392 0000603 185.8848 174.1987 15.02550188119611
STARLINK-30885          
1 58361U 23177L   26011.52392358  .00002007  00000+0  16359-3 0  9995
2 58361  43.0051 302.4656 0001270 266.6790  93.3907 15.02534523119620
STARLINK-30890          
1 58362U 23177M   26011.18819677  .00000453  00000+0  48564-4 0  9993
2 58362  43.0054 304.2468 0000687 269.9141  90.1622 15.02535474119515
STARLINK-30909          
1 58363U 23177N   26011.51946613  .00002662  00000+0  21207-3 0  9990
2 58363  43.0049 302.4316 0001013 279.9987  80.0741 15.02537367119619
STARLINK-30904          
1 58364U 23177P   26011.52244323  .00001323  00000+0  11298-3 0  9993
2 58364  43.0041 300.7393 0000923 275.7915  84.2822 15.02536541119633
STARLINK-30918          
1 58365U 23177Q   26011.11172995  .00000825  00000+0  76160-4 0  9990
2 58365  43.0042 304.5326 0001363 265.0228  95.0458 15.02536435119559
STARLINK-30892          
1 58366U 23177R   26011.51391744 -.00006194  00000+0 -44329-3 0  9998
2 58366  43.0049 302.3886 0000943 272.3365  87.7369 15.02584421119625
STARLINK-30891          
1 58367U 23177S   26011.24135836  .00001635  00000+0  13605-3 0  9993
2 58367  43.0027 303.7835 0000870 286.9087  73.1660 15.02533825119515
STARLINK-30889          
1 58368U 23177T   26011.24357667  .00000309  00000+0  37955-4 0  9994
2 58368  43.0030 303.8007 0000940 277.4373  82.6363 15.02535439119577
STARLINK-30870          
1 58369U 23177U   26011.23913596  .00001279  00000+0  10973-3 0  9990
2 58369  43.0031 303.7666 0001058 282.2960  77.7763 15.02531610119572
STARLINK-30888          
1 58370U 23177V   26011.21039359  .00001185  00000+0  10275-3 0  9997
2 58370  43.0032 304.3982 0001095 270.3468  89.7249 15.02536566119572
STARLINK-30859          
1 58371U 23177W   26011.53278996  .00000672  00000+0  64790-4 0  9997
2 58371  43.0049 302.4971 0000819 271.8832  88.1916 15.02533348119627
STARLINK-30884          
1 58372U 23177X   26011.49949453  .00001755  00000+0  14494-3 0  9994
2 58372  43.0057 302.2786 0001065 285.6346  74.4378 15.02538428119619
STARLINK-30852          
1 58373U 23177Y   26011.19485141 -.00000680  00000+0 -35288-4 0  9994
2 58373  43.0035 304.2628 0000746 248.1361 111.9402 15.02537385119569
STARLINK-30911          
1 58374U 23178A   26011.40787651  .00004925  00000+0  17824-3 0  9990
2 58374  53.1619 266.9703 0001091  79.5648 280.5475 15.30209293121118
STARLINK-30894          
1 58375U 23178B   26011.09188066 -.00001271  00000+0 -30825-4 0  9991
2 58375  53.1616 268.5617 0001481  83.6024 276.5145 15.30175198121008
STARLINK-30910          
1 58376U 23178C   26011.42161510  .00004995  00000+0  18075-3 0  9990
2 58376  53.1610 267.0659 0001317  98.3779 261.7371 15.30185274121127
STARLINK-30914          
1 58377U 23178D   26011.41001102  .00003587  00000+0  13318-3 0  9991
2 58377  53.1572 266.9808 0001038 134.4205 225.6881 15.30196016121126
STARLINK-30920          
1 58378U 23178E   26011.37473770  .00000940  00000+0  43856-4 0  9992
2 58378  53.1593 254.7300 0001027  95.7689 264.3429 15.30195560121294
STARLINK-30882          
1 58379U 23178F   26011.42477562  .00001592  00000+0  65878-4 0  9994
2 58379  53.1602 267.0821 0001641 121.6731 238.4430 15.30198068121122
STARLINK-30915          
1 58380U 23178G   26011.65263065  .00000762  00000+0  37852-4 0  9991
2 58380  53.1606 176.2677 0001145  83.1944 276.9187 15.30195248122387
STARLINK-30923          
1 58381U 23178H   26011.43426611  .00002650  00000+0  10156-3 0  9991
2 58381  53.1603 267.0978 0001393  96.0242 264.0917 15.30198970121054
STARLINK-30927          
1 58382U 23178J   26011.12142627  .00007850  00000+0  27684-3 0  9991
2 58382  53.1581 268.7419 0000966  85.1633 274.9478 15.30205693121059
STARLINK-30921          
1 58383U 23178K   26011.43110999  .00003689  00000+0  13663-3 0  9991
2 58383  53.1617 267.1239 0001388  83.7996 276.3163 15.30199419121109
STARLINK-30825          
1 58384U 23178L   26011.41528204  .00004306  00000+0  15744-3 0  9991
2 58384  53.1600 266.9955 0001935  84.5289 275.5933 15.30199330121126
STARLINK-30930          
1 58385U 23178M   26011.00203688  .00004341  00000+0  15149-3 0  9991
2 58385  53.1587 268.7092 0001229  96.1593 263.9548 15.31715050120931
STARLINK-30929          
1 58386U 23178N   26011.40167095  .00000234  00000+0  20024-4 0  9993
2 58386  53.1603 267.4429 0001344 110.0657 250.0489 15.30176204121096
STARLINK-30898          
1 58387U 23178P   26011.13091017  .00001876  00000+0  75489-4 0  9992
2 58387  53.1582 268.6735 0001215  82.2529 277.8609 15.30187951121071
STARLINK-30913          
1 58388U 23178Q   26011.11720527  .00004113  00000+0  15097-3 0  9991
2 58388  53.1597 268.7156 0001272  91.0135 269.1012 15.30184491121078
STARLINK-30938          
1 58389U 23178R   26010.98869024  .00004668  00000+0  16967-3 0  9994
2 58389  53.1586 269.3360 0001232  89.9005 270.2137 15.30192924121058
STARLINK-30868          
1 58390U 23178S   26011.43744025  .00003158  00000+0  11869-3 0  9999
2 58390  53.1595 267.1632 0001185  79.1745 280.9389 15.30200345121129
STARLINK-30916          
1 58391U 23178T   26011.12457164  .00002736  00000+0  10449-3 0  9995
2 58391  53.1598 268.6589 0001194  79.4241 280.6894 15.30194832121079
STARLINK-30939          
1 58393U 23178V   26011.42794318  .00002801  00000+0  10666-3 0  9999
2 58393  53.1609 267.1014 0001196  95.9674 264.1463 15.30198135120995
STARLINK-30887          
1 58394U 23178W   26011.39847925  .00004570  00000+0  16631-3 0  9992
2 58394  53.1596 267.4535 0001217  97.5963 262.5176 15.30204606121091
STARLINK-30934          
1 58395U 23178X   26011.44061747  .00002118  00000+0  83626-4 0  9994
2 58395  53.1595 267.2548 0001440  88.7501 271.3665 15.30198488121058
STARLINK-30964          
1 58402U 23180A   26011.35295641  .00001015  00000+0  90205-4 0  9994
2 58402  43.0046   7.2817 0001037 274.9690  85.1034 15.02537329118964
STARLINK-30844          
1 58403U 23180B   26011.34309310  .00000511  00000+0  52898-4 0  9999
2 58403  43.0050   8.0699 0001321 287.7735  72.2963 15.02548532118848
STARLINK-30876          
1 58404U 23180C   26011.33975841  .00000266  00000+0  34764-4 0  9996
2 58404  43.0046   8.0423 0001124 257.8887 102.1830 15.02535092118951
STARLINK-30952          
1 58405U 23180D   26011.33642779  .00000033  00000+0  17548-4 0  9991
2 58405  43.0046   8.0158 0001118 274.6438  85.4277 15.02537761118840
STARLINK-30925          
1 58406U 23180E   26011.33309308 -.00002351  00000+0 -15902-3 0  9998
2 58406  43.0036   7.9907 0001091 274.8754  85.1963 15.02544972118844
STARLINK-30954          
1 58407U 23180F   26011.34962580  .00000983  00000+0  87793-4 0  9992
2 58407  43.0041   7.2544 0001027 274.1921  85.8804 15.02540291118963
STARLINK-30906          
1 58408U 23180G   26011.35638055  .00001235  00000+0  10647-3 0  9995
2 58408  43.0053   7.9992 0001165 273.2072  86.8637 15.02536368118843
STARLINK-30940          
1 58409U 23180H   26011.62093220  .00001935  00000+0  79840-4 0  9993
2 58409  42.9996 229.7583 0001158 271.8141  88.2578 15.27568888120607
STARLINK-30933          
1 58410U 23180J   26011.30541215  .00000948  00000+0  43948-4 0  9995
2 58410  43.0008 230.8186 0000954 272.7689  87.3054 15.27583568120563
STARLINK-30919          
1 58411U 23180K   26011.56103254  .00018162  00000+0  13590-2 0  9996
2 58411  43.0050   5.3367 0001044 243.1748 116.8987 15.02453806118908
STARLINK-30924          
1 58412U 23180L   26011.30103376  .00017037  00000+0  57551-3 0  9990
2 58412  43.0006 230.7773 0003885 271.6947  88.3460 15.30386170120561
STARLINK-30931          
1 58413U 23180M   26011.34225445  .00001070  00000+0  94252-4 0  9997
2 58413  43.0044 355.2050 0001084 279.0440  81.0279 15.02531275119107
STARLINK-30922          
1 58414U 23180N   26011.44606800 -.00003416  00000+0 -23782-3 0  9994
2 58414  43.0052   7.1050 0000887 269.8124  90.2617 15.02555374118974
STARLINK-30949          
1 58415U 23180P   26011.38292534 -.00000190  00000+0  10184-5 0  9992
2 58415  43.0044   7.4771 0000991 267.0904  92.9825 15.02533939118963
STARLINK-30967          
1 58416U 23180Q   26011.38625199  .00000914  00000+0  82750-4 0  9990
2 58416  43.0049   7.5146 0001222 261.6227  98.4477 15.02536055118968
STARLINK-30955          
1 58417U 23180R   26011.42608826 -.00001465  00000+0 -93386-4 0  9995
2 58417  43.0050   6.9562 0001007 265.6218  94.4509 15.02550098118977
STARLINK-30895          
1 58418U 23180S   26011.37293890 -.00000207  00000+0 -29050-6 0  9993
2 58418  43.0041   7.4298 0000849 279.7345  80.3402 15.02539437118857
STARLINK-30917          
1 58419U 23180T   26011.06380885  .00001630  00000+0  68761-4 0  9990
2 58419  43.0003 269.1949 0001463 264.8368  95.2317 15.27575671120084
STARLINK-30899          
1 58420U 23180U   26011.36627602  .00001576  00000+0  13168-3 0  9995
2 58420  43.0036   7.3766 0001271 271.2625  88.8072 15.02535481118852
STARLINK-30902          
1 58421U 23180V   26011.34630539 -.00004291  00000+0 -30269-3 0  9997
2 58421  43.0036   7.2310 0001327 283.3852  76.6842 15.02542657118858
STARLINK-30912          
1 58422U 23180W   26011.64597453 -.00000032  00000+0  83793-5 0  9998
2 58422  43.0021 232.4492 0001390 274.0440  86.0253 15.27588743120572
STARLINK-30900          
1 58423U 23180X   26011.44271860  .00096245  00000+0  71436-2 0  9996
2 58423  43.0027   7.0406 0000840 225.0492 135.0282 15.01996790118865
STARLINK-30908          
1 58424U 23180Y   26011.42472925  .00000646  00000+0  62898-4 0  9994
2 58424  43.0044   6.0106 0000894 273.7691  86.3049 15.02537564118984
